AEHF-6 (USA 298)        
1 45465U 20022B   26087.92853384 -.00000322  00000+0  00000+0 0  9991
2 45465   2.7248 300.1643 0048094  16.5247 341.6681  1.00270457 22207
